{
  "type": "FeatureCollection",
  "features": [
    {
      "type": "Feature",
      "properties": {
        "norad_id": 36371,
        "name": "COSMOS 2251 DEB",
        "group": "cosmos-2251-debris",
        "lat": -73.1185676502966,
        "lon": 86.69449487656597,
        "alt_km": 664.6905297738313,
        "timestamp": "2025-12-14T18:52:55.900679+00:00",
        "meta_object_name": "COSMOS 2251 DEB",
        "meta_object_id": "1993-036AYY",
        "meta_epoch": "2025-12-13T04:05:01.207968",
        "meta_mean_motion": 14.70618704,
        "meta_eccentricity": 0.00096817,
        "meta_inclination": 74.0127,
        "meta_ra_of_asc_node": 160.6969,
        "meta_arg_of_pericenter": 198.9381,
        "meta_mean_anomaly": 161.1432,
        "meta_ephemeris_type": 0,
        "meta_classification_type": "U",
        "meta_norad_cat_id": 36371,
        "meta_element_set_no": 999,
        "meta_rev_at_epoch": 71451,
        "meta_bstar": 0.0027229729,
        "meta_mean_motion_dot": 0.00016584,
        "meta_mean_motion_ddot": 0,
        "tle_line1": "1 36371U 93036AYY 25347.17015287  .00016584  00000+0  27230-2 0  9992",
        "tle_line2": "2 36371  74.0127 160.6969 0009681 198.9381 161.1432 14.70618704714517"
      },
      "geometry": {
        "type": "Point",
        "coordinates": [
          86.69449487656597,
          -73.1185676502966
        ]
      }
    },
    {
      "type": "Feature",
      "properties": {
        "norad_id": 36379,
        "name": "COSMOS 2251 DEB",
        "group": "cosmos-2251-debris",
        "lat": -3.956272432049898,
        "lon": 124.19635255399804,
        "alt_km": 786.6711764929632,
        "timestamp": "2025-12-14T18:52:55.900689+00:00",
        "meta_object_name": "COSMOS 2251 DEB",
        "meta_object_id": "1993-036AZG",
        "meta_epoch": "2025-12-13T03:39:01.651680",
        "meta_mean_motion": 14.36079534,
        "meta_eccentricity": 0.00446264,
        "meta_inclination": 74.0126,
        "meta_ra_of_asc_node": 306.0647,
        "meta_arg_of_pericenter": 74.8853,
        "meta_mean_anomaly": 301.0382,
        "meta_ephemeris_type": 0,
        "meta_classification_type": "U",
        "meta_norad_cat_id": 36379,
        "meta_element_set_no": 999,
        "meta_rev_at_epoch": 64834,
        "meta_bstar": 0.00045338854,
        "meta_mean_motion_dot": 1.309e-05,
        "meta_mean_motion_ddot": 0,
        "tle_line1": "1 36379U 93036AZG 25347.15210245  .00001309  00000+0  45339-3 0  9999",
        "tle_line2": "2 36379  74.0126 306.0647 0044626  74.8853 301.0382 14.36079534648347"
      },
      "geometry": {
        "type": "Point",
        "coordinates": [
          124.19635255399804,
          -3.956272432049898
        ]
      }
    },
    {
      "type": "Feature",
      "properties": {
        "norad_id": 36385,
        "name": "COSMOS 2251 DEB",
        "group": "cosmos-2251-debris",
        "lat": 42.879058395150324,
        "lon": 166.02102862581987,
        "alt_km": 631.3886768356924,
        "timestamp": "2025-12-14T18:52:55.900700+00:00",
        "meta_object_name": "COSMOS 2251 DEB",
        "meta_object_id": "1993-036AZN",
        "meta_epoch": "2025-12-13T19:51:19.110528",
        "meta_mean_motion": 14.72595598,
        "meta_eccentricity": 0.01412817,
        "meta_inclination": 73.9691,
        "meta_ra_of_asc_node": 152.4115,
        "meta_arg_of_pericenter": 326.5773,
        "meta_mean_anomaly": 32.6538,
        "meta_ephemeris_type": 0,
        "meta_classification_type": "U",
        "meta_norad_cat_id": 36385,
        "meta_element_set_no": 999,
        "meta_rev_at_epoch": 85118,
        "meta_bstar": 0.0015120007,
        "meta_mean_motion_dot": 0.00011254,
        "meta_mean_motion_ddot": 0,
        "tle_line1": "1 36385U 93036AZN 25347.82730452  .00011254  00000+0  15120-2 0  9991",
        "tle_line2": "2 36385  73.9691 152.4115 0141281 326.5773  32.6538 14.72595598851186"
      },
      "geometry": {
        "type": "Point",
        "coordinates": [
          166.02102862581987,
          42.879058395150324
        ]
      }
    },
    {
      "type": "Feature",
      "properties": {
        "norad_id": 36420,
        "name": "COSMOS 2251 DEB",
        "group": "cosmos-2251-debris",
        "lat": 63.86188036673634,
        "lon": -52.59826187882357,
        "alt_km": 757.7766574468224,
        "timestamp": "2025-12-14T18:52:55.900711+00:00",
        "meta_object_name": "COSMOS 2251 DEB",
        "meta_object_id": "1993-036AZT",
        "meta_epoch": "2025-12-09T05:12:09.080064",
        "meta_mean_motion": 14.36895704,
        "meta_eccentricity": 0.001793,
        "meta_inclination": 74.0374,
        "meta_ra_of_asc_node": 281.9559,
        "meta_arg_of_pericenter": 10.5601,
        "meta_mean_anomaly": 57.255,
        "meta_ephemeris_type": 0,
        "meta_classification_type": "U",
        "meta_norad_cat_id": 36420,
        "meta_element_set_no": 999,
        "meta_rev_at_epoch": 84986,
        "meta_bstar": 0.00029505,
        "meta_mean_motion_dot": 8.48e-06,
        "meta_mean_motion_ddot": 0,
        "tle_line1": "1 36420U 93036AZT 25343.21677176  .00000848  00000+0  29505-3 0  9993",
        "tle_line2": "2 36420  74.0374 281.9559 0017930  10.5601  57.2550 14.36895704849860"
      },
      "geometry": {
        "type": "Point",
        "coordinates": [
          -52.59826187882357,
          63.86188036673634
        ]
      }
    },
    {
      "type": "Feature",
      "properties": {
        "norad_id": 36430,
        "name": "COSMOS 2251 DEB",
        "group": "cosmos-2251-debris",
        "lat": 22.371760260789536,
        "lon": 111.59777341311609,
        "alt_km": 842.1144059230701,
        "timestamp": "2025-12-14T18:52:55.900721+00:00",
        "meta_object_name": "COSMOS 2251 DEB",
        "meta_object_id": "1993-036BAD",
        "meta_epoch": "2025-12-07T15:14:59.696160",
        "meta_mean_motion": 14.27773173,
        "meta_eccentricity": 0.00973352,
        "meta_inclination": 74.0036,
        "meta_ra_of_asc_node": 117.7938,
        "meta_arg_of_pericenter": 268.8676,
        "meta_mean_anomaly": 90.1319,
        "meta_ephemeris_type": 0,
        "meta_classification_type": "U",
        "meta_norad_cat_id": 36430,
        "meta_element_set_no": 999,
        "meta_rev_at_epoch": 64484,
        "meta_bstar": 0.00083938099,
        "meta_mean_motion_dot": 2.154e-05,
        "meta_mean_motion_ddot": 0,
        "tle_line1": "1 36430U 93036BAD 25341.63541315  .00002154  00000+0  83938-3 0  9995",
        "tle_line2": "2 36430  74.0036 117.7938 0097335 268.8676  90.1319 14.27773173644845"
      },
      "geometry": {
        "type": "Point",
        "coordinates": [
          111.59777341311609,
          22.371760260789536
        ]
      }
    },
    {
      "type": "Feature",
      "properties": {
        "norad_id": 36437,
        "name": "COSMOS 2251 DEB",
        "group": "cosmos-2251-debris",
        "lat": -15.12780797951942,
        "lon": 25.537539331997284,
        "alt_km": 661.1213833226448,
        "timestamp": "2025-12-14T18:52:55.900731+00:00",
        "meta_object_name": "COSMOS 2251 DEB",
        "meta_object_id": "1993-036BAL",
        "meta_epoch": "2025-12-13T20:05:54.423744",
        "meta_mean_motion": 14.70721281,
        "meta_eccentricity": 0.0023165,
        "meta_inclination": 73.9432,
        "meta_ra_of_asc_node": 31.8555,
        "meta_arg_of_pericenter": 263.2441,
        "meta_mean_anomaly": 96.6094,
        "meta_ephemeris_type": 0,
        "meta_classification_type": "U",
        "meta_norad_cat_id": 36437,
        "meta_element_set_no": 999,
        "meta_rev_at_epoch": 66067,
        "meta_bstar": 0.0016309327,
        "meta_mean_motion_dot": 9.966e-05,
        "meta_mean_motion_ddot": 0,
        "tle_line1": "1 36437U 93036BAL 25347.83743546  .00009966  00000+0  16309-2 0  9995",
        "tle_line2": "2 36437  73.9432  31.8555 0023165 263.2441  96.6094 14.70721281660671"
      },
      "geometry": {
        "type": "Point",
        "coordinates": [
          25.537539331997284,
          -15.12780797951942
        ]
      }
    },
    {
      "type": "Feature",
      "properties": {
        "norad_id": 36439,
        "name": "COSMOS 2251 DEB",
        "group": "cosmos-2251-debris",
        "lat": 73.8470277167887,
        "lon": 130.39777625005317,
        "alt_km": 1042.7550380650246,
        "timestamp": "2025-12-14T18:52:55.900741+00:00",
        "meta_object_name": "COSMOS 2251 DEB",
        "meta_object_id": "1993-036BAN",
        "meta_epoch": "2025-12-13T21:04:43.144896",
        "meta_mean_motion": 13.47798346,
        "meta_eccentricity": 0.04278596,
        "meta_inclination": 73.9686,
        "meta_ra_of_asc_node": 34.8989,
        "meta_arg_of_pericenter": 6.5347,
        "meta_mean_anomaly": 354.1091,
        "meta_ephemeris_type": 0,
        "meta_classification_type": "U",
        "meta_norad_cat_id": 36439,
        "meta_element_set_no": 999,
        "meta_rev_at_epoch": 58628,
        "meta_bstar": 0.0013017792,
        "meta_mean_motion_dot": 1.382e-05,
        "meta_mean_motion_ddot": 0,
        "tle_line1": "1 36439U 93036BAN 25347.87827714  .00001382  00000+0  13018-2 0  9999",
        "tle_line2": "2 36439  73.9686  34.8989 0427859   6.5347 354.1091 13.47798346586281"
      },
      "geometry": {
        "type": "Point",
        "coordinates": [
          130.39777625005317,
          73.8470277167887
        ]
      }
    }
  ]
}